20,VANGUARD 3,1959,124.06,-1.0,UNK,33.34,Inactive,0,LEO,USA,USA,Unknown,Unknown,Unknown,1 00020U 59007A   25159.72387022  .00000763  00000+0  29462-3 0  9997,2 00020  33.3449 170.4322 1642713 213.0167 135.6455 11.60692770441189,11.6069277,0.1642713,LEO
22,EXPLORER 7,1959,94.8,-1.0,UNK,50.27,Inactive,0,LEO,USA,USA,Unknown,Unknown,Unknown,1 00022U 59009A   25159.42743238  .00008626  00000+0  37779-3 0  9999,2 00022  50.2731 133.8222 0091981  68.7571 292.3180 15.19042450743355,15.1904245,0.0091981,LEO
