<ndm>
    <omm id="CCSDS_OMM_VERS" version="3.0">
        <header>
            <COMMENT>GENERATED VIA SPACE-TRACK.ORG API</COMMENT>
            <CREATION_DATE>2025-06-09T04:21:09</CREATION_DATE>
            <ORIGINATOR>18 SPCS</ORIGINATOR>
        </header>
        <body>
            <segment>
                <metadata>
                    <OBJECT_NAME>VANGUARD 3</OBJECT_NAME>
                    <OBJECT_ID>1959-007A</OBJECT_ID>
                    <CENTER_NAME>EARTH</CENTER_NAME>
                    <REF_FRAME>TEME</REF_FRAME>
                    <TIME_SYSTEM>UTC</TIME_SYSTEM>
                    <MEAN_ELEMENT_THEORY>SGP4</MEAN_ELEMENT_THEORY>
                </metadata>
                <data>
                    <meanElements>
                        <EPOCH>2025-06-08T17:22:22.387008</EPOCH>
                        <MEAN_MOTION>11.60692770</MEAN_MOTION>
                        <ECCENTRICITY>0.16427130</ECCENTRICITY>
                        <INCLINATION>33.3449</INCLINATION>
                        <RA_OF_ASC_NODE>170.4322</RA_OF_ASC_NODE>
                        <ARG_OF_PERICENTER>213.0167</ARG_OF_PERICENTER>
                        <MEAN_ANOMALY>135.6455</MEAN_ANOMALY>
                    </meanElements>
                    <tleParameters>
                        <EPHEMERIS_TYPE>0</EPHEMERIS_TYPE>
                        <CLASSIFICATION_TYPE>U</CLASSIFICATION_TYPE>
                        <NORAD_CAT_ID>20</NORAD_CAT_ID>
                        <ELEMENT_SET_NO>999</ELEMENT_SET_NO>
                        <REV_AT_EPOCH>44118</REV_AT_EPOCH>
                        <BSTAR>0.00029462000000</BSTAR>
                        <MEAN_MOTION_DOT>0.00000763</MEAN_MOTION_DOT>
                        <MEAN_MOTION_DDOT>0.0000000000000</MEAN_MOTION_DDOT>
                    </tleParameters>
                    <userDefinedParameters>
                        <USER_DEFINED parameter="SEMIMAJOR_AXIS">8239.933</USER_DEFINED>
                        <USER_DEFINED parameter="PERIOD">124.064</USER_DEFINED>
                        <USER_DEFINED parameter="APOAPSIS">3215.382</USER_DEFINED>
                        <USER_DEFINED parameter="PERIAPSIS">508.213</USER_DEFINED>
                        <USER_DEFINED parameter="OBJECT_TYPE">PAYLOAD</USER_DEFINED>
                        <USER_DEFINED parameter="RCS_SIZE">MEDIUM</USER_DEFINED>
                        <USER_DEFINED parameter="COUNTRY_CODE">US</USER_DEFINED>
                        <USER_DEFINED parameter="LAUNCH_DATE">1959-09-18</USER_DEFINED>
                        <USER_DEFINED parameter="SITE">AFETR</USER_DEFINED>
                        <USER_DEFINED parameter="DECAY_DATE"/>
                        <USER_DEFINED parameter="FILE">4752310</USER_DEFINED>
                        <USER_DEFINED parameter="GP_ID">289500729</USER_DEFINED>
                    </userDefinedParameters>
                </data>
            </segment>
        </body>
    </omm>
    <omm id="CCSDS_OMM_VERS" version="3.0">
        <header>
            <COMMENT>GENERATED VIA SPACE-TRACK.ORG API</COMMENT>
            <CREATION_DATE>2025-06-08T17:55:41</CREATION_DATE>
            <ORIGINATOR>18 SPCS</ORIGINATOR>
        </header>
        <body>
            <segment>
                <metadata>
                    <OBJECT_NAME>EXPLORER 7</OBJECT_NAME>
                    <OBJECT_ID>1959-009A</OBJECT_ID>
                    <CENTER_NAME>EARTH</CENTER_NAME>
                    <REF_FRAME>TEME</REF_FRAME>
                    <TIME_SYSTEM>UTC</TIME_SYSTEM>
                    <MEAN_ELEMENT_THEORY>SGP4</MEAN_ELEMENT_THEORY>
                </metadata>
                <data>
                    <meanElements>
                        <EPOCH>2025-06-08T10:15:30.157632</EPOCH>
                        <MEAN_MOTION>15.19042450</MEAN_MOTION>
                        <ECCENTRICITY>0.00919810</ECCENTRICITY>
                        <INCLINATION>50.2731</INCLINATION>
                        <RA_OF_ASC_NODE>133.8222</RA_OF_ASC_NODE>
                        <ARG_OF_PERICENTER>68.7571</ARG_OF_PERICENTER>
                        <MEAN_ANOMALY>292.3180</MEAN_ANOMALY>
                    </meanElements>
                    <tleParameters>
                        <EPHEMERIS_TYPE>0</EPHEMERIS_TYPE>
                        <CLASSIFICATION_TYPE>U</CLASSIFICATION_TYPE>
                        <NORAD_CAT_ID>22</NORAD_CAT_ID>
                        <ELEMENT_SET_NO>999</ELEMENT_SET_NO>
                        <REV_AT_EPOCH>74335</REV_AT_EPOCH>
                        <BSTAR>0.00037779000000</BSTAR>
                        <MEAN_MOTION_DOT>0.00008626</MEAN_MOTION_DOT>
                        <MEAN_MOTION_DDOT>0.0000000000000</MEAN_MOTION_DDOT>
                    </tleParameters>
                    <userDefinedParameters>
                        <USER_DEFINED parameter="SEMIMAJOR_AXIS">6886.870</USER_DEFINED>
                        <USER_DEFINED parameter="PERIOD">94.797</USER_DEFINED>
                        <USER_DEFINED parameter="APOAPSIS">572.081</USER_DEFINED>
                        <USER_DEFINED parameter="PERIAPSIS">445.389</USER_DEFINED>
                        <USER_DEFINED parameter="OBJECT_TYPE">PAYLOAD</USER_DEFINED>
                        <USER_DEFINED parameter="RCS_SIZE">MEDIUM</USER_DEFINED>
                        <USER_DEFINED parameter="COUNTRY_CODE">US</USER_DEFINED>
                        <USER_DEFINED parameter="LAUNCH_DATE">1959-10-13</USER_DEFINED>
                        <USER_DEFINED parameter="SITE">AFETR</USER_DEFINED>
                        <USER_DEFINED parameter="DECAY_DATE"/>
                        <USER_DEFINED parameter="FILE">4752121</USER_DEFINED>
                        <USER_DEFINED parameter="GP_ID">289466727</USER_DEFINED>
                    </userDefinedParameters>
                </data>
            </segment>
        </body>
    </omm>
    
</ndm>
